NORAD_CAT_ID,OBJECT_NAME,OBJECT_TYPE,EPOCH,MEAN_MOTION,ECCENTRICITY,INCLINATION,RA_OF_ASC_NODE,ARG_OF_PERICENTER,MEAN_ANOMALY,BSTAR,MEAN_MOTION_DOT,MEAN_MOTION_DDOT,TLE_LINE0,TLE_LINE1,TLE_LINE2,SEMIMAJOR_AXIS,PERIOD,APOGEE,PERIGEE,DECAYED
52998.0,STARLINK-4254,PAYLOAD,2022-08-27 14:00:01,15.49845785,8.740000000000001e-05,53.2177,128.4779,91.8761,201.8055,0.0010676,0.00060526,0.0,0 STARLINK-4254,1 52998U 22076N   22239.58334491  .00060526  00000-0  10676-2 0  9996,2 52998  53.2177 128.4779 0000874  91.8761 201.8055 15.49845785  1300,6795.314,92.912,417.773,416.585,0.0
52998.0,STARLINK-4254,PAYLOAD,2022-08-27 22:00:00,15.50022183,9.3e-05,53.2176,126.8825,71.5959,282.9608,-0.010129,-0.00539951,0.0,0 STARLINK-4254,1 52998U 22076N   22239.91667824 -.00539951  00000-0 -10129-1 0  9999,2 52998  53.2176 126.8825 0000930  71.5959 282.9608 15.50022183  8560,6794.7980000000025,92.902,417.295,416.031,0.0
52998.0,STARLINK-4254,PAYLOAD,2022-08-28 06:00:00,15.49756321,0.000101,53.2171,125.2858,85.855,329.534,-0.020392,-0.01047181,0.0,0 STARLINK-4254,1 52998U 22076N   22240.25001157 -.01047181  00000-0 -20392-1 0  9992,2 52998  53.2171 125.2858 0001010  85.8550 329.5340 15.49756321  8612,6795.575,92.918,418.127,416.754,0.0
52998.0,STARLINK-4254,PAYLOAD,2022-08-28 14:00:01,15.49003728,0.0001176,53.2173,123.69,90.5528,25.1392,-0.02122,-0.01059764,0.0,0 STARLINK-4254,1 52998U 22076N   22240.58334491 -.01059764  00000-0 -21220-1 0  9999,2 52998  53.2173 123.6900 0001176  90.5528  25.1392 15.49003728  1306,6797.776,92.963,420.441,418.842,0.0
52998.0,STARLINK-4254,PAYLOAD,2022-08-28 22:00:00,15.48242466,0.0001307,53.2172,122.1003,82.6463,92.4359,-0.0217139999999999,-0.01056085,0.0,0 STARLINK-4254,1 52998U 22076N   22240.91667824 -.01056085  00000-0 -21714-1 0  9996,2 52998  53.2172 122.1003 0001307  82.6463  92.4359 15.48242466  8725,6800.004,93.009,422.758,420.981,0.0
52998.0,STARLINK-4254,PAYLOAD,2022-08-29 14:00:01,15.46723053,0.0001202,53.2173,118.9213,103.3022,187.8246,-0.022884,-0.01055369,0.0,0 STARLINK-4254,1 52998U 22076N   22241.58334491 -.01055369  00000-0 -22884-1 0  9994,2 52998  53.2173 118.9213 0001202 103.3022 187.8246 15.46723053  1303,6804.456999999999,93.1,427.14,425.504,0.0
52998.0,STARLINK-4254,PAYLOAD,2022-08-29 22:00:00,15.45965315,0.0001113,53.2174,117.3372,89.9326,257.8449,-0.023544,-0.01057379,0.0,0 STARLINK-4254,1 52998U 22076N   22241.91667824 -.01057379  00000-0 -23544-1 0  9997,2 52998  53.2174 117.3372 0001113  89.9326 257.8449 15.45965315  8870,6806.68,93.146,429.30300000000005,427.788,0.0
52998.0,STARLINK-4254,PAYLOAD,2022-08-30 14:00:01,15.44454706,0.0001179,53.2173,114.1701,75.9392,22.4009,-0.025051,-0.01067037,0.0,0 STARLINK-4254,1 52998U 22076N   22242.58334491 -.01067037  00000-0 -25051-1 0  9999,2 52998  53.2173 114.1701 0001179  75.9392  22.4009 15.44454706  1305,6811.118,93.237,433.786,432.18,0.0
52998.0,STARLINK-4254,PAYLOAD,2022-08-30 22:00:00,15.43702819,0.0001264999999999,53.2176,112.5917,98.0098,54.2403,-0.025965,-0.01092264,0.0,0 STARLINK-4254,1 52998U 22076N   22242.91667824 -.01092264  00000-0 -25965-1 0  9999,2 52998  53.2176 112.5917 0001265  98.0098  54.2403 15.43702819  9022,6813.329000000002,93.282,436.056,434.332,0.0
52998.0,STARLINK-4254,PAYLOAD,2022-08-31 14:00:01,15.4216667,0.0001268,53.2175,109.4329,94.4445,162.9081,-0.026741,-0.01069807,0.0,0 STARLINK-4254,1 52998U 22076N   22243.58334491 -.01069807  00000-0 -26741-1 0  9994,2 52998  53.2175 109.4329 0001268  94.4445 162.9081 15.42166670  1302,6817.853,93.375,440.582,438.853,0.0
52998.0,STARLINK-4254,PAYLOAD,2022-08-31 22:00:00,15.41454909,0.0001308,53.2174,107.8615,104.9545,203.5456,-0.029069,-0.01129943,0.0,0 STARLINK-4254,1 52998U 22076N   22243.91667824 -.01129943  00000-0 -29069-1 0  9994,2 52998  53.2174 107.8615 0001308 104.9545 203.5456 15.41454909  1306,6819.9519999999975,93.418,442.709,440.925,0.0
52998.0,STARLINK-4254,PAYLOAD,2022-09-01 06:00:00,15.40673525,0.0001004999999999,53.2169,106.2876,86.9509,271.8279,-0.029117,-0.0110479,0.0,0 STARLINK-4254,1 52998U 22076N   22244.25001157 -.01104790  00000-0 -29117-1 0  9990,2 52998  53.2169 106.2876 0001005  86.9509 271.8279 15.40673525  9232,6822.257,93.466,444.8080000000001,443.437,0.0
52998.0,STARLINK-4254,PAYLOAD,2022-09-01 14:00:01,15.39878716,0.0001111,53.2171,104.7145,77.90899999999998,330.3033,-0.028455,-0.01055723,0.0,0 STARLINK-4254,1 52998U 22076N   22244.58335648 -.01055723  00000-0 -28455-1 0  9996,2 52998  53.2171 104.7145 0001111  77.9090 330.3033 15.39878716  1306,6824.605,93.514,447.228,445.711,0.0
52998.0,STARLINK-4254,PAYLOAD,2022-09-01 22:00:00,15.39130533,0.0001283,53.2173,103.1457,70.8322,25.7492,-0.029661,-0.01072166,0.0,0 STARLINK-4254,1 52998U 22076N   22244.91667824 -.01072166  00000-0 -29661-1 0  9997,2 52998  53.2173 103.1457 0001283  70.8322  25.7492 15.39130533  1309,6826.816,93.559,449.557,447.805,0.0
52998.0,STARLINK-4254,PAYLOAD,2022-09-02 14:00:01,15.37609973,0.0001357,53.2173,100.0099,95.9835,94.7389,-0.03107,-0.01068712,0.0,0 STARLINK-4254,1 52998U 22076N   22245.58334491 -.01068712  00000-0 -31070-1 0  9991,2 52998  53.2173 100.0099 0001357  95.9835  94.7389 15.37609973  9447,6831.316,93.652,454.108,452.254,0.0
52998.0,STARLINK-4254,PAYLOAD,2022-09-02 22:00:01,15.36849613,0.0001341999999999,53.2173,98.4476,88.6304,147.8562,-0.031818,-0.01067734,0.0,0 STARLINK-4254,1 52998U 22076N   22245.91668981 -.01067734  00000-0 -31818-1 0  9995,2 52998  53.2173  98.4476 0001342  88.6304 147.8562 15.36849613  1306,6833.569,93.698,456.351,454.517,0.0
52998.0,STARLINK-4254,PAYLOAD,2022-09-03 14:00:01,15.35340135,0.0001149,53.2171,95.3237,95.1521,229.9282,-0.033763,-0.01078046,0.0,0 STARLINK-4254,1 52998U 22076N   22246.58334491 -.01078046  00000-0 -33763-1 0  9994,2 52998  53.2171  95.3237 0001149  95.1521 229.9282 15.35340135  1309,6838.047,93.79,460.698,459.127,0.0
52998.0,STARLINK-4254,PAYLOAD,2022-09-03 22:00:00,15.34572946,0.0001163,53.2173,93.7658,80.3319,287.716,-0.034342,-0.01070514,0.0,0 STARLINK-4254,1 52998U 22076N   22246.91667824 -.01070514  00000-0 -34342-1 0  9996,2 52998  53.2173  93.7658 0001163  80.3319 287.7160 15.34572946  1300,6840.326,93.837,462.987,461.396,0.0
52998.0,STARLINK-4254,PAYLOAD,2022-09-04 14:00:01,15.33047973,0.0001266,53.2173,90.6525,83.6458,7.6562,-0.03568,-0.0106036,0.0,0 STARLINK-4254,1 52998U 22076N   22247.58335648 -.01060360  00000-0 -35680-1 0  9990,2 52998  53.2173  90.6525 0001266  83.6458   7.6562 15.33047973  9740,6844.861999999999,93.931,467.593,465.86,0.0
52998.0,STARLINK-4254,PAYLOAD,2022-09-04 20:00:01,15.32483643,0.0001171,53.2173,89.4881,78.6363,312.8537,-0.036647,-0.01069023,0.0,0 STARLINK-4254,1 52998U 22076N   22247.83334491 -.01069023  00000-0 -36647-1 0  9992,2 52998  53.2173  89.4881 0001171  78.6363 312.8537 15.32483643  1309,6846.542,93.965,469.209,467.605,0.0
52998.0,STARLINK-4254,PAYLOAD,2022-09-05 06:00:00,15.3153411,0.0001329,53.2174,87.5473,85.0495,85.72399999999998,-0.037747,-0.01068712,0.0,0 STARLINK-4254,1 52998U 22076N   22248.25001157 -.01068712  00000-0 -37747-1 0  9995,2 52998  53.2174  87.5473 0001329  85.0495  85.7240 15.31534110  9859,6849.371999999999,94.023,472.147,470.326,0.0
52998.0,STARLINK-4254,PAYLOAD,2022-09-05 14:00:01,15.30773366,0.0001381,53.2175,85.99700000000001,86.0452,123.128,-0.038543,-0.01065804,0.0,0 STARLINK-4254,1 52998U 22076N   22248.58334491 -.01065804  00000-0 -38543-1 0  9995,2 52998  53.2175  85.9970 0001381  86.0452 123.1280 15.30773366  1306,6851.641,94.07,474.452,472.559,0.0
52998.0,STARLINK-4254,PAYLOAD,2022-09-05 22:00:00,15.30061197,0.000122,53.2178,84.4524,92.9714,153.6566,-0.04162,-0.01120445,0.0,0 STARLINK-4254,1 52998U 22076N   22248.91667824 -.01120445  00000-0 -41620-1 0  9994,2 52998  53.2178  84.4524 0001220  92.9714 153.6566 15.30061197  1304,6853.767,94.114,476.468,474.795,0.0
52998.0,STARLINK-4254,PAYLOAD,2022-09-06 06:00:00,15.29256318,0.000126,53.2175,82.9031,99.063,184.1705,-0.04058,-0.01069982,0.0,0 STARLINK-4254,1 52998U 22076N   22249.25001157 -.01069982  00000-0 -40580-1 0  9995,2 52998  53.2175  82.9031 0001260  99.0630 184.1705 15.29256318 10006,6856.170999999999,94.163,478.9,477.172,0.0
52998.0,STARLINK-4254,PAYLOAD,2022-09-06 14:00:01,15.28494627,0.0001213,53.2176,81.3583,91.3556,227.5399,-0.041339,-0.01065063,0.0,0 STARLINK-4254,1 52998U 22076N   22249.58334491 -.01065063  00000-0 -41339-1 0  9990,2 52998  53.2176  81.3583 0001213  91.3556 227.5399 15.28494627  1302,6858.449000000001,94.21,481.146,479.482,0.0
52998.0,STARLINK-4254,PAYLOAD,2022-09-06 22:00:00,15.27753862,0.0001197,53.2178,79.819,86.941,266.6921,-0.043417,-0.01091021,0.0,0 STARLINK-4254,1 52998U 22076N   22249.91667824 -.01091021  00000-0 -43417-1 0  9998,2 52998  53.2178  79.8190 0001197  86.9410 266.6921 15.27753862  1303,6860.666,94.256,483.352,481.709,0.0
52998.0,STARLINK-4254,PAYLOAD,2022-09-07 04:00:00,15.27166889,0.000124,53.2173,78.6605,92.2576,196.8488,-0.0432139999999999,-0.01068582,0.0,0 STARLINK-4254,1 52998U 22076N   22250.16667824 -.01068582  00000-0 -43214-1 0  9998,2 52998  53.2173  78.6605 0001240  92.2576 196.8488 15.27166889 10149,6862.4230000000025,94.292,485.139,483.437,0.0
52998.0,STARLINK-4254,PAYLOAD,2022-09-07 14:00:01,15.26243779,0.0001183,53.2174,76.7366,83.8698,336.5182,-0.045888,-0.01100256,0.0,0 STARLINK-4254,1 52998U 22076N   22250.58334491 -.01100256  00000-0 -45888-1 0  9999,2 52998  53.2174  76.7366 0001183  83.8698 336.5182 15.26243779  1305,6865.19,94.349,487.867,486.24300000000005,0.0
52998.0,STARLINK-4254,PAYLOAD,2022-09-07 22:00:00,15.25455414,0.0001271,53.2176,75.2001,77.1006,15.3136,-0.045305,-0.01063871,0.0,0 STARLINK-4254,1 52998U 22076N   22250.91667824 -.01063871  00000-0 -45305-1 0  9990,2 52998  53.2176  75.2001 0001271  77.1006  15.3136 15.25455414  1305,6867.555,94.398,490.293,488.547,0.0
